COSMOS 2550             
1 48865U 21056A   26067.47400841 -.00000192  00000+0 -13338-7 0  9992
2 48865  67.1451  44.6088 0008369 269.6014  90.4182 15.33829151263273
STARLINK-34687          
1 64909U 25157F   26068.17375094  .00008728  00000+0  30651-3 0  9998
2 64909  53.1608 348.1452 0001068  88.0554 272.0569 15.30195600 35992
